*******************************************************************************
JPL/HORIZONS                130 Elektra (A873 DA)          2020-Jun-20 08:18:21
Rec #:     130 (+COV) Soln.date: 2020-Feb-22_15:17:50   # obs: 3064 (1893-2020)
 
IAU76/J2000 helio. ecliptic osc. elements (au, days, deg., period=Julian yrs):
 
  EPOCH=  2454813.5 ! 2008-Dec-13.00 (TDB)         Residual RMS= .26487
   EC= .2088647837543504   QR= 2.469705064988555   TP= 2454855.4836261137
   OM= 145.4577051325791   W=  235.1871273638914   IN= 22.87350645252103
   A= 3.121723081306629    MA= 352.4977340340355   ADIST= 3.773741097624702
   PER= 5.51569            N= .17869504            ANGMOM= .029723014
   DAN= 3.38973            DDN= 2.66747            L= 18.4159788
   B= -18.6102704          MOID= 1.53436995        TP= 2009-Jan-23.9836261137
 
Asteroid physical parameters (km, seconds, rotational period in hours):
   GM= n.a.                RAD= 90.326             ROTPER= 5.225
   H= 7.1                  G= .150                 B-V= .753
                           ALBEDO= .086            STYP= Ch
 
ASTEROID comments: 
1: soln ref.= JPL#110, OCC=0
2: source=ORB
*******************************************************************************
 
 
*******************************************************************************
Ephemeris / WWW_USER Sat Jun 20 08:18:21 2020 Pasadena, USA      / Horizons
*******************************************************************************
Target body name: 130 Elektra (A873 DA)           {source: JPL#110}
Center body name: Solar System Barycenter (0)     {source: DE431}
Center-site name: BODY CENTER
*******************************************************************************
Start time      : A.D. 1969-Jun-28 00:00:00.0000 TDB
Stop  time      : A.D. 2071-May-04 00:00:00.0000 TDB
Step-size       : 7200 minutes
*******************************************************************************
Center geodetic : 0.00000000,0.00000000,0.0000000 {E-lon(deg),Lat(deg),Alt(km)}
Center cylindric: 0.00000000,0.00000000,0.0000000 {E-lon(deg),Dxy(km),Dz(km)}
Center radii    : (undefined)                                                  
Small perturbers: Yes                             {source: SB431-N16}
Output units    : AU-D
Output type     : GEOMETRIC cartesian states
Output format   : 2 (position and velocity)
Reference frame : Ecliptic of J2000.0
*******************************************************************************
Initial IAU76/J2000 heliocentric ecliptic osculating elements (au, days, deg.):
  EPOCH=  2454813.5 ! 2008-Dec-13.00 (TDB)         Residual RMS= .26487        
   EC= .2088647837543504   QR= 2.469705064988555   TP= 2454855.4836261137      
   OM= 145.4577051325791   W=  235.1871273638914   IN= 22.87350645252103       
  Equivalent ICRF heliocentric equatorial cartesian coordinates (au, au/d):
   X= 2.372347383663142E+00  Y= 5.161988202021528E-01  Z=-4.989323753848924E-01
  VX=-2.657061561528532E-03 VY= 1.160867924839222E-02 VZ= 1.470223693720773E-03
Asteroid physical parameters (km, seconds, rotational period in hours):        
   GM= n.a.                RAD= 90.326             ROTPER= 5.225               
   H= 7.1                  G= .150                 B-V= .753                   
                           ALBEDO= .086            STYP= Ch                    
*******************************************************************************
            JDTDB,            Calendar Date (TDB),        delta-T,                      X,                      Y,                      Z,                     VX,                     VY,                     VZ,
******************************************************************************************************************************************************************************************************************
$$SOE
2448100.500000000, A.D. 1990-Jul-28 00:00:00.0000,      57.183385, -1.891865374491160E+00, -2.738368924622118E+00,  1.404296674275048E+00,  7.407535437288773E-03, -3.709026457581598E-03, -4.504778809118185E-04,
2448105.500000000, A.D. 1990-Aug-02 00:00:00.0000,      57.183259, -1.854680000125308E+00, -2.756698360492523E+00,  1.401934004478214E+00,  7.466470463777281E-03, -3.622576995397754E-03, -4.946158330657885E-04,
2448110.500000000, A.D. 1990-Aug-07 00:00:00.0000,      57.183137, -1.817202120330553E+00, -2.774592983318461E+00,  1.399350260025898E+00,  7.524535192812399E-03, -3.535100779419647E-03, -5.389073334044204E-04,
2448115.500000000, A.D. 1990-Aug-12 00:00:00.0000,      57.183021, -1.779436123115368E+00, -2.792047652446615E+00,  1.396544679396418E+00,  7.581714959544144E-03, -3.446595060382092E-03, -5.833498793530756E-04,
2448120.500000000, A.D. 1990-Aug-17 00:00:00.0000,      57.182913, -1.741386470663967E+00, -2.809057213549945E+00,  1.393516513807449E+00,  7.637994757328232E-03, -3.357057119174075E-03, -6.279408770762148E-04,
2448125.500000000, A.D. 1990-Aug-22 00:00:00.0000,      57.182815, -1.703057701063317E+00, -2.825616498795440E+00,  1.390265027682447E+00,  7.693359230495772E-03, -3.266484273688229E-03, -6.726776374069309E-04,
2448130.500000000, A.D. 1990-Aug-27 00:00:00.0000,      57.182725, -1.664454430066504E+00, -2.841720327046966E+00,  1.386789499137788E+00,  7.747792667042700E-03, -3.174873886008568E-03, -7.175573716291234E-04,
2448135.500000000, A.D. 1990-Sep-01 00:00:00.0000,      57.182642, -1.625581352892863E+00, -2.857363504104905E+00,  1.383089220491373E+00,  7.801278991232813E-03, -3.082223369941840E-03, -7.625771871069069E-04,
2448140.500000000, A.D. 1990-Sep-06 00:00:00.0000,      57.182568, -1.586443246065312E+00, -2.872540822984324E+00,  1.379163498793475E+00,  7.853801756115459E-03, -2.988530198899060E-03, -8.077340827610380E-04,
2448145.500000000, A.D. 1990-Sep-11 00:00:00.0000,      57.182505, -1.547044969285301E+00, -2.887247064233454E+00,  1.375011656380583E+00,  7.905344135962273E-03, -2.893791914138431E-03, -8.530249443918002E-04,
2448150.500000000, A.D. 1990-Sep-16 00:00:00.0000,      57.182454, -1.507391467345764E+00, -2.901476996294304E+00,  1.370633031453021E+00,  7.955888918626858E-03, -2.798006133381944E-03, -8.984465398467075E-04,
2448155.500000000, A.D. 1990-Sep-21 00:00:00.0000,      57.182415, -1.467487772082474E+00, -2.915225375907313E+00,  1.366026978677112E+00,  8.005418497828825E-03, -2.701170559810041E-03, -9.439955140345251E-04,
2448160.500000000, A.D. 1990-Sep-26 00:00:00.0000,      57.182388, -1.427339004364122E+00, -2.928486948561891E+00,  1.361192869812617E+00,  8.053914865384355E-03, -2.603282991415727E-03, -9.896683838128322E-04,
2448165.500000000, A.D. 1990-Oct-01 00:00:00.0000,      57.182371, -1.386950376121294E+00, -2.941256448994616E+00,  1.356130094365991E+00,  8.101359603427512E-03, -2.504341330729760E-03, -1.035461532767148E-03,
2448170.500000000, A.D. 1990-Oct-06 00:00:00.0000,      57.182365, -1.346327192414187E+00, -2.953528601737125E+00,  1.350838060270013E+00,  8.147733876696414E-03, -2.404343594985644E-03, -1.081371205875741E-03,
2448175.500000000, A.D. 1990-Oct-11 00:00:00.0000,      57.182371, -1.305474853538862E+00, -2.965298121716252E+00,  1.345316194590655E+00,  8.193018424816826E-03, -2.303287926867109E-03, -1.127393503930917E-03,
2448180.500000000, A.D. 1990-Oct-16 00:00:00.0000,      57.182392, -1.264398857172227E+00, -2.976559714909347E+00,  1.339563944262527E+00,  8.237193554520151E-03, -2.201172605830662E-03, -1.173524377688590E-03,
2448185.500000000, A.D. 1990-Oct-21 00:00:00.0000,      57.182425, -1.223104800556151E+00, -2.987308079057533E+00,  1.333580776854193E+00,  8.280239131772617E-03, -2.097996059941453E-03, -1.219759621779001E-03,
2448190.500000000, A.D. 1990-Oct-26 00:00:00.0000,      57.182470, -1.181598382721098E+00, -2.997537904439338E+00,  1.327366181364428E+00,  8.322134573845258E-03, -1.993756878186498E-03, -1.266094868426683E-03,
2448195.500000000, A.D. 1990-Oct-31 00:00:00.0000,      57.182524, -1.139885406749494E+00, -3.007243874707072E+00,  1.320919669050294E+00,  8.362858841353450E-03, -1.888453823266741E-03, -1.312525581005645E-03,
2448200.500000000, A.D. 1990-Nov-05 00:00:00.0000,      57.182589, -1.097971782078929E+00, -3.016420667788406E+00,  1.314240774287813E+00,  8.402390430289848E-03, -1.782085844878475E-03, -1.359047047447859E-03,
2448205.500000000, A.D. 1990-Nov-10 00:00:00.0000,      57.182665, -1.055863526845142E+00, -3.025062956855587E+00,  1.307329055465928E+00,  8.440707364083581E-03, -1.674652093496328E-03, -1.405654373523369E-03,
2448210.500000000, A.D. 1990-Nov-15 00:00:00.0000,      57.182753, -1.013566770264552E+00, -3.033165411364873E+00,  1.300184095914352E+00,  8.477787185728647E-03, -1.566151934678707E-03, -1.452342476004168E-03,
2448215.500000000, A.D. 1990-Nov-20 00:00:00.0000,      57.182852, -9.710877550558847E-01, -3.040722698168857E+00,  1.292805504865896E+00,  8.513606950029116E-03, -1.456584963927495E-03, -1.499106075711891E-03,
2448220.500000000, A.D. 1990-Nov-25 00:00:00.0000,      57.182958, -9.284328399001746E-01, -3.047729482704574E+00,  1.285192918453860E+00,  8.548143216008122E-03, -1.345951022145561E-03, -1.545939690435200E-03,
2448225.500000000, A.D. 1990-Nov-30 00:00:00.0000,      57.183072, -8.856085019382270E-01, -3.054180430260492E+00,  1.277346000745233E+00,  8.581372039521256E-03, -1.234250211746299E-03, -1.592837627689150E-03,
2448230.500000000, A.D. 1990-Dec-05 00:00:00.0000,      57.183191, -8.426213393044460E-01, -3.060070207325819E+00,  1.269264444810560E+00,  8.613268966101669E-03, -1.121482913477920E-03, -1.639793977276143E-03,
2448235.500000000, A.D. 1990-Dec-10 00:00:00.0000,      57.183318, -7.994780736958319E-01, -3.065393483025840E+00,  1.260947973831611E+00,  8.643809024043997E-03, -1.007649804025745E-03, -1.686802603601707E-03,
